QZS-1R                  
1 49336U 21096A   23303.78553558 -.00000242  00000+0  00000+0 0  9997
2 49336  35.4721  94.0492 0748016 270.2893  92.5224  1.00273413  7387
